      2.10          N: GNSS NAV DATA                        RINEX VERSION / TYPE
fic2rin                                 02/23/2021 00:17:25 PGM / RUN BY / DATE
                                                            END OF HEADER
17 21  2 22 20  0  0.0 3.986549563706e-04 6.366462912410e-12 0.000000000000e+00
    5.300000000000e+01 6.990625000000e+01 4.120885937154e-09 8.875423206487e-01
    3.507360816002e-06 1.349356852006e-02 5.034729838371e-06 5.153553718567e+03
    1.584000000000e+05-2.142041921616e-07-2.805465453731e+00-6.705522537231e-08
    9.830022018502e-01 2.982500000000e+02-1.576241828685e+00-8.188198214179e-09
    2.642967233051e-11 1.000000000000e+00 2.146000000000e+03 0.000000000000e+00
    2.400000000000e+00 0.000000000000e+00-1.117587089539e-08 5.300000000000e+01
    1.512000000000e+05 4.000000000000e+00
24 21  2 22 20  0  0.0 1.980923116207e-06-5.684341886081e-13 0.000000000000e+00
    1.090000000000e+02 5.968750000000e+00 5.473085118821e-09-8.858429028440e-01
    4.768371582031e-07 1.092292868998e-02 6.154179573059e-06 5.153608018875e+03
    1.584000000000e+05 1.862645149231e-07 1.255997869810e+00 1.844018697739e-07
    9.350449427979e-01 2.468750000000e+02 7.321332254304e-01-8.471424297397e-09
   -1.485776174256e-10 1.000000000000e+00 2.146000000000e+03 0.000000000000e+00
    3.400000000000e+00 0.000000000000e+00 2.793967723846e-09 1.090000000000e+02
    1.512000000000e+05 4.000000000000e+00
26 21  2 22 20  0  0.0 4.870863631368e-05 5.456968210638e-12 0.000000000000e+00
    8.500000000000e+01 6.159375000000e+01 4.849130557180e-09 2.759494486330e+00
    3.159046173096e-06 5.745489266701e-03 9.875744581223e-06 5.153764419556e+03
    1.584000000000e+05-1.098960638046e-07 2.330017095524e+00-5.401670932770e-08
    9.430039398307e-01 1.797187500000e+02 2.814655218373e-01-7.981403886080e-09
   -3.253706958526e-10 1.000000000000e+00 2.146000000000e+03 0.000000000000e+00
    2.400000000000e+00 0.000000000000e+00 6.984919309616e-09 8.500000000000e+01
    1.512000000000e+05 4.000000000000e+00
25 21  2 22 20  0  0.0 8.579390123487e-05 7.617018127348e-12 0.000000000000e+00
    7.700000000000e+01 5.806250000000e+01 4.377682348041e-09-2.884078225503e+00
    2.902001142502e-06 9.849176974967e-03 9.287148714066e-06 5.153668514252e+03
    1.584000000000e+05 1.117587089539e-07 2.370341446373e+00-2.104789018631e-07
    9.620759750346e-01 1.988750000000e+02 9.452269067576e-01-7.761037564081e-09
   -2.675111429129e-10 1.000000000000e+00 2.146000000000e+03 0.000000000000e+00
    3.400000000000e+00 0.000000000000e+00 5.587935447693e-09 7.700000000000e+01
    1.512000000000e+05 4.000000000000e+00
14 21  2 22 20  0  0.0 9.836908429861e-05 1.818989403546e-12 0.000000000000e+00
    6.700000000000e+01 5.225000000000e+01 4.514473760239e-09-1.702575160827e+00
    2.788379788399e-06 4.027166869491e-04 9.596347808838e-06 5.153744270325e+03
    1.584000000000e+05 3.725290298462e-09 2.416981128257e+00 0.000000000000e+00
    9.582824748487e-01 1.944375000000e+02 2.178378422959e+00-7.911043812443e-09
   -2.600108304947e-10 1.000000000000e+00 2.146000000000e+03 0.000000000000e+00
    2.400000000000e+00 0.000000000000e+00-7.916241884232e-09 3.230000000000e+02
    1.512000000000e+05 4.000000000000e+00
23 21  2 22 20  0  0.0 1.183920539916e-04-1.136868377216e-13 0.000000000000e+00
    1.830000000000e+02-8.903125000000e+01 4.093027633887e-09-1.535472374771e+00
   -4.582107067108e-06 1.064545474946e-03 9.801238775253e-06 5.153651182175e+03
    1.584000000000e+05-3.911554813385e-08-7.957962808179e-01 6.891787052155e-08
    9.633163686448e-01 1.928125000000e+02 2.447956945427e+00-7.783895659069e-09
    2.060800126311e-10 1.000000000000e+00 2.146000000000e+03 0.000000000000e+00
    2.400000000000e+00 0.000000000000e+00-8.381903171539e-09 9.510000000000e+02
    1.512000000000e+05 4.000000000000e+00
18 21  2 22 20  0  0.0 3.484091721475e-04 1.477928890381e-12 0.000000000000e+00
    1.610000000000e+02-7.165625000000e+01 4.349824044774e-09-1.100628681534e+00
   -3.749504685402e-06 1.189864706248e-03 3.527849912643e-06 5.153685993195e+03
    1.584000000000e+05-4.656612873077e-08-1.795554186050e+00-4.097819328308e-08
    9.667422887196e-01 3.154375000000e+02 3.034979941382e+00-8.193555580192e-09
   -1.775073938955e-10 1.000000000000e+00 2.146000000000e+03 0.000000000000e+00
    2.400000000000e+00 0.000000000000e+00-8.381903171539e-09 6.730000000000e+02
    1.512000000000e+05 4.000000000000e+00
11 21  2 22 20  0  0.0-1.725461333990e-05 1.057287590811e-11 0.000000000000e+00
    6.000000000000e+01 1.834375000000e+01 5.680593762389e-09-1.887451999243e+00
    1.104548573494e-06 1.532011595555e-02 1.361593604088e-06 5.154075817108e+03
    1.584000000000e+05-2.421438694000e-07-2.301081209360e+00 3.948807716370e-07
    9.141893705368e-01 3.290625000000e+02 2.081416762723e+00-8.865012120481e-09
   -7.286017777600e-11 1.000000000000e+00 2.146000000000e+03 0.000000000000e+00
    2.400000000000e+00 6.300000000000e+01-1.257285475731e-08 6.000000000000e+01
    1.512000000000e+05 4.000000000000e+00
 6 21  2 22 19 59 44.0-1.962762326002e-06 1.364242052659e-12 0.000000000000e+00
    2.800000000000e+01-5.403125000000e+01 4.075884062646e-09-9.083434445619e-01
   -2.820044755936e-06 2.331277355552e-03 3.537163138390e-06 5.153714122772e+03
    1.583840000000e+05-3.911554813385e-08-1.816971011221e+00 2.980232238770e-08
    9.825495837740e-01 3.248437500000e+02-1.064007838003e+00-8.066407426819e-09
   -9.286101089098e-11 1.000000000000e+00 2.146000000000e+03 0.000000000000e+00
    2.400000000000e+00 0.000000000000e+00 3.725290298462e-09 2.800000000000e+01
    1.513800000000e+05 4.000000000000e+00
24 21  2 22 19 59 44.0 1.974403858185e-06-5.684341886081e-13 0.000000000000e+00
    4.100000000000e+01 5.968750000000e+00 5.473085118821e-09-8.881768028489e-01
    4.768371582031e-07 1.092292938847e-02 6.154179573059e-06 5.153608015060e+03
    1.583840000000e+05 1.862645149231e-07 1.255998014639e+00 1.844018697739e-07
    9.350449486496e-01 2.468750000000e+02 7.321333029651e-01-8.471424297397e-09
   -1.485776174256e-10 1.000000000000e+00 2.146000000000e+03 0.000000000000e+00
    2.400000000000e+00 0.000000000000e+00 2.793967723846e-09 4.100000000000e+01
    1.516200000000e+05 4.000000000000e+00
25 21  2 22 19 59 44.0 8.579343557358e-05 7.617018127348e-12 0.000000000000e+00
    3.400000000000e+01 5.806250000000e+01 4.377682348041e-09-2.886412302521e+00
    2.902001142502e-06 9.849174879491e-03 9.287148714066e-06 5.153668518066e+03
    1.583840000000e+05 1.117587089539e-07 2.370341570721e+00-2.104789018631e-07
    9.620759882009e-01 1.988750000000e+02 9.452271891008e-01-7.761037564081e-09
   -2.675111429129e-10 1.000000000000e+00 2.146000000000e+03 0.000000000000e+00
    2.400000000000e+00 0.000000000000e+00 5.587935447693e-09 3.400000000000e+01
    1.516500000000e+05 4.000000000000e+00
 2 21  2 22 22  0  0.0-5.795941688120e-04-3.865352482535e-12 0.000000000000e+00
    7.000000000000e+01-4.253125000000e+01 4.727696927554e-09 6.676741729093e-02
   -2.240762114525e-06 2.039008843713e-02 3.084540367126e-06 5.153616950989e+03
    1.656000000000e+05-3.334134817123e-07-1.890678358274e+00-6.332993507385e-08
    9.618546194371e-01 3.252500000000e+02-1.542268863952e+00-8.686433253383e-09
   -1.460775132862e-10 1.000000000000e+00 2.146000000000e+03 0.000000000000e+00
    2.400000000000e+00 0.000000000000e+00-1.769512891769e-08 7.000000000000e+01
    1.584000000000e+05 4.000000000000e+00
 1 21  2 22 22  0  0.0 7.556602358818e-04-8.071765478235e-12 0.000000000000e+00
    9.500000000000e+01-6.671875000000e+01 4.262320399896e-09-1.800128435375e-01
   -3.404915332794e-06 1.042299531400e-02 2.726912498474e-06 5.153688413620e+03
    1.656000000000e+05 1.303851604462e-08-1.808770126536e+00 1.490116119385e-07
    9.830606937038e-01 3.354062500000e+02 8.193895053076e-01-8.339990251213e-09
   -2.171519023912e-10 1.000000000000e+00 2.146000000000e+03 0.000000000000e+00
    3.400000000000e+00 0.000000000000e+00 4.656612873077e-09 9.500000000000e+01
    1.584000000000e+05 4.000000000000e+00
 6 21  2 22 22  0  0.0-1.952983438969e-06 1.364242052659e-12 0.000000000000e+00
    2.900000000000e+01-5.431250000000e+01 4.136600877459e-09 1.438303517058e-01
   -2.861022949219e-06 2.329985843971e-03 2.998858690262e-06 5.153711339951e+03
    1.656000000000e+05 2.048909664154e-08-1.817028780394e+00-7.078051567078e-08
    9.825485538797e-01 3.357500000000e+02-1.063693933819e+00-8.085693944465e-09
   -1.867934949846e-10 1.000000000000e+00 2.146000000000e+03 0.000000000000e+00
    2.400000000000e+00 0.000000000000e+00 3.725290298462e-09 2.900000000000e+01
    1.584000000000e+05 4.000000000000e+00
 5 21  2 22 22  0  0.0-3.442168235779e-05-1.023181539495e-12 0.000000000000e+00
    6.800000000000e+01-8.681250000000e+01 4.362681723205e-09 2.618480076377e+00
   -4.556030035019e-06 5.999621818773e-03 8.694827556610e-06 5.153828113556e+03
    1.656000000000e+05 6.891787052155e-08-8.055382516844e-01-8.754432201385e-08
    9.553911518535e-01 2.105000000000e+02 8.818769070615e-01-7.868184884340e-09
    5.678807973718e-11 1.000000000000e+00 2.146000000000e+03 0.000000000000e+00
    2.400000000000e+00 0.000000000000e+00-1.117587089539e-08 6.800000000000e+01
    1.584000000000e+05 4.000000000000e+00
 3 21  2 22 22  0  0.0-9.018229320645e-05-1.023181539495e-11 0.000000000000e+00
    6.700000000000e+01-1.003750000000e+02 4.052668809923e-09-1.312404055697e+00
   -5.230307579041e-06 3.290845896117e-03 9.555369615555e-06 5.153655172348e+03
    1.656000000000e+05 1.154839992523e-07-7.699437344242e-01 3.539025783539e-08
    9.684744627230e-01 2.004375000000e+02 8.438593995483e-01-7.750322832055e-09
    3.285851154604e-11 1.000000000000e+00 2.146000000000e+03 0.000000000000e+00
    2.400000000000e+00 0.000000000000e+00 1.862645149231e-09 6.700000000000e+01
    1.584000000000e+05 4.000000000000e+00
